LANDSAT 9               
1 49260U 21088A   24198.14937020  .00000725  00000+0  17094-3 0  9997
2 49260  98.2306 267.3752 0001303  94.4824 265.6523 14.57104196148911
